ONEWEB-0418             
1 50493U 21132AA  23059.44365846  .00000069  00000+0  11391-3 0  9991
2 50493  87.9606 214.7957 0001012  67.1257 292.9990 13.32611358 62872
ONEWEB-0418             
1 50493U 21132AA  23059.44365846  .00000069  00000+0  11391-3 0  9991
2 50493  87.9606 214.7957 0001012  67.1257 292.9990 13.32611358 64155
ONEWEB-0418             
1 50493U 21132AA  23059.89416407  .00000088  00000+0  15372-3 0  9994
2 50493  87.9608 214.7059 0000990  67.9014 292.2231 13.32611278 62939
ONEWEB-0418             
1 50493U 21132AA  23060.72009054  .00000110  00000+0  19951-3 0  9997
2 50493  87.9609 214.5415 0000969  70.0675 290.0570 13.32611594 64326
ONEWEB-0418             
1 50493U 21132AA  23060.87025982  .00000016  00000+0  62750-5 0  9993
2 50493  87.9610 214.5116 0000953  70.3169 289.8074 13.32610903 63068
ONEWEB-0418             
1 50493U 21132AA  23061.69618572  .00000079  00000+0  13614-3 0  9999
2 50493  87.9612 214.3470 0000901  70.3807 289.7431 13.32611744 63175
ONEWEB-0418             
1 50493U 21132AA  23062.37194389  .00000117  00000+0  21407-3 0  9992
2 50493  87.9613 214.2124 0000851  72.0220 288.1012 13.32611653 64542
ONEWEB-0418             
1 50493U 21132AA  23062.44702798  .00000128  00000+0  23704-3 0  9993
2 50493  87.9613 214.1975 0000850  72.3683 287.7550 13.32611793 63276
ONEWEB-0418             
1 50493U 21132AA  23062.67228075  .00000140  00000+0  25981-3 0  9992
2 50493  87.9614 214.1526 0000839  72.8704 287.2528 13.32611674 63307
